start=new Date('2022-02-14T00:00:00.000Z').valueOf();
sats=[{"FILE":"3299744","NORAD_CAT_ID":"46333","COUNTRY_CODE":"US","MEAN_MOTION":"15.06401721","PERIOD":"95.592","OBJECT_ID":"2020-062J","SITE":"AFETR","LAUNCH_DATE":"2020-09-03","CENTER_NAME":"EARTH","MEAN_ELEMENT_THEORY":"SGP4","TLE_LINE1":"1 46333U 20062J   22044.82521278 -.00000259  00000-0  15123-5 0  9990","RCS_SIZE":"LARGE","CLASSIFICATION_TYPE":"U","TIME_SYSTEM":"UTC","EPOCH":"2022-02-13T19:48:18.384192","BSTAR":"0.00000151230000","ECCENTRICITY":"0.00014290","GP_ID":"195899077","DECAY_DATE":null,"INCLINATION":"53.0529","RA_OF_ASC_NODE":"202.4410","SEMIMAJOR_AXIS":"6925.343","ELEMENT_SET_NO":"999","REV_AT_EPOCH":"8068","PERIAPSIS":"546.219","TLE_LINE2":"2 46333  53.0529 202.4410 0001429  75.8440 284.2708 15.06401721 80682","EPHEMERIS_TYPE":"0","ARG_OF_PERICENTER":"75.8440","REF_FRAME":"TEME","OBJECT_TYPE":"PAYLOAD","MEAN_MOTION_DDOT":"0.0000000000000","MEAN_ANOMALY":"284.2708","MEAN_MOTION_DOT":"-0.00000259","OBJECT_NAME":"STARLINK-1723","APOAPSIS":"548.198"},{"TIME_SYSTEM":"UTC","CLASSIFICATION_TYPE":"U","GP_ID":"195898598","ECCENTRICITY":"0.00015430","BSTAR":"-0.00015382000000","EPOCH":"2022-02-13T16:01:22.254816","DECAY_DATE":null,"SEMIMAJOR_AXIS":"6925.372","RA_OF_ASC_NODE":"183.1327","ELEMENT_SET_NO":"999","INCLINATION":"53.0530","COUNTRY_CODE":"US","NORAD_CAT_ID":"46334","MEAN_MOTION":"15.06392338","FILE":"3299745","SITE":"AFETR","OBJECT_ID":"2020-062K","PERIOD":"95.593","MEAN_ELEMENT_THEORY":"SGP4","TLE_LINE1":"1 46334U 20062K   22044.66761869 -.00002571  00000-0 -15382-3 0  9990","CENTER_NAME":"EARTH","LAUNCH_DATE":"2020-09-03","RCS_SIZE":"LARGE","OBJECT_TYPE":"PAYLOAD","MEAN_ANOMALY":"295.3770","MEAN_MOTION_DDOT":"0.0000000000000","MEAN_MOTION_DOT":"-0.00002571","OBJECT_NAME":"STARLINK-1725","APOAPSIS":"548.306","PERIAPSIS":"546.168","REV_AT_EPOCH":"8094","ARG_OF_PERICENTER":"64.7379","EPHEMERIS_TYPE":"0","TLE_LINE2":"2 46334  53.0530 183.1327 0001543  64.7379 295.3770 15.06392338 80946","REF_FRAME":"TEME"},{"RCS_SIZE":"LARGE","TLE_LINE1":"1 46335U 20062L   22044.72201131 -.00000956  00000-0 -45276-4 0  9990","MEAN_ELEMENT_THEORY":"SGP4","CENTER_NAME":"EARTH","LAUNCH_DATE":"2020-09-03","OBJECT_ID":"2020-062L","SITE":"AFETR","PERIOD":"95.592","COUNTRY_CODE":"US","NORAD_CAT_ID":"46335","MEAN_MOTION":"15.06396580","FILE":"3299756","SEMIMAJOR_AXIS":"6925.359","ELEMENT_SET_NO":"999","RA_OF_ASC_NODE":"202.8967","INCLINATION":"53.0552","DECAY_DATE":null,"ECCENTRICITY":"0.00015870","GP_ID":"195899108","EPOCH":"2022-02-13T17:19:41.777184","BSTAR":"-0.00004527600000","CLASSIFICATION_TYPE":"U","TIME_SYSTEM":"UTC","REF_FRAME":"TEME","EPHEMERIS_TYPE":"0","ARG_OF_PERICENTER":"65.0481","TLE_LINE2":"2 46335  53.0552 202.8967 0001587  65.0481 295.0673 15.06396580 80678","PERIAPSIS":"546.125","REV_AT_EPOCH":"8067","APOAPSIS":"548.323","OBJECT_NAME":"STARLINK-1727","MEAN_MOTION_DOT":"-0.00000956","MEAN_MOTION_DDOT":"0.0000000000000","MEAN_ANOMALY":"295.0673","OBJECT_TYPE":"PAYLOAD"},{"REF_FRAME":"TEME","EPHEMERIS_TYPE":"0","ARG_OF_PERICENTER":"70.3945","TLE_LINE2":"2 46336  53.0548 182.9487 0001388  70.3945 289.7194 15.06397340 80956","REV_AT_EPOCH":"8095","PERIAPSIS":"546.260","APOAPSIS":"548.183","OBJECT_NAME":"STARLINK-1738","MEAN_MOTION_DOT":"-0.00001347","MEAN_MOTION_DDOT":"0.0000000000000","MEAN_ANOMALY":"289.7194","OBJECT_TYPE":"PAYLOAD","RCS_SIZE":"LARGE","MEAN_ELEMENT_THEORY":"SGP4","TLE_LINE1":"1 46336U 20062M   22044.71279349 -.00001347  00000-0 -71534-4 0  9997","CENTER_NAME":"EARTH","LAUNCH_DATE":"2020-09-03","OBJECT_ID":"2020-062M","SITE":"AFETR","PERIOD":"95.592","COUNTRY_CODE":"US","MEAN_MOTION":"15.06397340","NORAD_CAT_ID":"46336","FILE":"3299756","ELEMENT_SET_NO":"999","SEMIMAJOR_AXIS":"6925.357","RA_OF_ASC_NODE":"182.9487","INCLINATION":"53.0548","DECAY_DATE":null,"ECCENTRICITY":"0.00013880","GP_ID":"195899110","EPOCH":"2022-02-13T17:06:25.357536","BSTAR":"-0.00007153400000","CLASSIFICATION_TYPE":"U","TIME_SYSTEM":"UTC"},{"OBJECT_NAME":"STARLINK-1750","APOAPSIS":"548.343","OBJECT_TYPE":"PAYLOAD","MEAN_ANOMALY":"299.4450","MEAN_MOTION_DDOT":"0.0000000000000","MEAN_MOTION_DOT":"-0.00002211","ARG_OF_PERICENTER":"60.6698","EPHEMERIS_TYPE":"0","TLE_LINE2":"2 46337  53.0555 183.1591 0001600  60.6698 299.4450 15.06393031 80943","REF_FRAME":"TEME","REV_AT_EPOCH":"8094","PERIAPSIS":"546.127","DECAY_DATE":null,"SEMIMAJOR_AXIS":"6925.370","ELEMENT_SET_NO":"999","RA_OF_ASC_NODE":"183.1591","INCLINATION":"53.0555","TIME_SYSTEM":"UTC","CLASSIFICATION_TYPE":"U","GP_ID":"195898612","ECCENTRICITY":"0.00016000","BSTAR":"-0.00012959000000","EPOCH":"2022-02-13T15:52:07.247136","MEAN_ELEMENT_THEORY":"SGP4","TLE_LINE1":"1 46337U 20062N   22044.66119499 -.00002211  00000-0 -12959-3 0  9997","LAUNCH_DATE":"2020-09-03","CENTER_NAME":"EARTH","RCS_SIZE":"LARGE","COUNTRY_CODE":"US","NORAD_CAT_ID":"46337","MEAN_MOTION":"15.06393031","FILE":"3299746","SITE":"AFETR","OBJECT_ID":"2020-062N","PERIOD":"95.593"},{"RA_OF_ASC_NODE":"203.5352","SEMIMAJOR_AXIS":"6925.371","ELEMENT_SET_NO":"999","INCLINATION":"53.0534","DECAY_DATE":null,"GP_ID":"195892890","ECCENTRICITY":"0.00016250","BSTAR":"-0.00019203000000","EPOCH":"2022-02-13T13:52:41.714976","TIME_SYSTEM":"UTC","CLASSIFICATION_TYPE":"U","RCS_SIZE":"LARGE","TLE_LINE1":"1 46338U 20062P   22044.57826059 -.00003140  00000-0 -19203-3 0  9996","MEAN_ELEMENT_THEORY":"SGP4","LAUNCH_DATE":"2020-09-03","CENTER_NAME":"EARTH","SITE":"AFETR","OBJECT_ID":"2020-062P","PERIOD":"95.593","COUNTRY_CODE":"US","MEAN_MOTION":"15.06392832","NORAD_CAT_ID":"46338","FILE":"3299685","APOAPSIS":"548.361","OBJECT_NAME":"STARLINK-1752","MEAN_MOTION_DDOT":"0.0000000000000","MEAN_ANOMALY":"291.3132","MEAN_MOTION_DOT":"-0.00003140","OBJECT_TYPE":"PAYLOAD","REF_FRAME":"TEME","ARG_OF_PERICENTER":"68.8031","EPHEMERIS_TYPE":"0","TLE_LINE2":"2 46338  53.0534 203.5352 0001625  68.8031 291.3132 15.06392832 80464","PERIAPSIS":"546.110","REV_AT_EPOCH":"8046"},{"FILE":"3299746","NORAD_CAT_ID":"46340","COUNTRY_CODE":"US","MEAN_MOTION":"15.06412449","PERIOD":"95.591","SITE":"AFETR","OBJECT_ID":"2020-062R","CENTER_NAME":"EARTH","LAUNCH_DATE":"2020-09-03","MEAN_ELEMENT_THEORY":"SGP4","TLE_LINE1":"1 46340U 20062R   22044.81690038 -.00000360  00000-0 -52878-5 0  9990","RCS_SIZE":"LARGE","TIME_SYSTEM":"UTC","CLASSIFICATION_TYPE":"U","BSTAR":"-0.00000528780000","EPOCH":"2022-02-13T19:36:20.192832","ECCENTRICITY":"0.00016210","GP_ID":"195899119","DECAY_DATE":null,"INCLINATION":"53.0552","RA_OF_ASC_NODE":"202.4595","SEMIMAJOR_AXIS":"6925.310","ELEMENT_SET_NO":"999","REV_AT_EPOCH":"8068","PERIAPSIS":"546.053","TLE_LINE2":"2 46340  53.0552 202.4595 0001621  73.4013 286.7154 15.06412449 80685","ARG_OF_PERICENTER":"73.4013","EPHEMERIS_TYPE":"0","REF_FRAME":"TEME","OBJECT_TYPE":"PAYLOAD","MEAN_MOTION_DOT":"-0.00000360","MEAN_MOTION_DDOT":"0.0000000000000","MEAN_ANOMALY":"286.7154","OBJECT_NAME":"STARLINK-1759","APOAPSIS":"548.298"},{"OBJECT_NAME":"STARLINK-1760","APOAPSIS":"548.329","OBJECT_TYPE":"PAYLOAD","MEAN_MOTION_DDOT":"0.0000000000000","MEAN_MOTION_DOT":"0.00002405","MEAN_ANOMALY":"290.1134","ARG_OF_PERICENTER":"70.0025","EPHEMERIS_TYPE":"0","TLE_LINE2":"2 46341  53.0533 182.7340 0001583  70.0025 290.1134 15.06393643 80968","REF_FRAME":"TEME","PERIAPSIS":"546.137","REV_AT_EPOCH":"8096","DECAY_DATE":null,"SEMIMAJOR_AXIS":"6925.368","ELEMENT_SET_NO":"999","RA_OF_ASC_NODE":"182.7340","INCLINATION":"53.0533","TIME_SYSTEM":"UTC","CLASSIFICATION_TYPE":"U","GP_ID":"195898621","ECCENTRICITY":"0.00015830","BSTAR":"0.00018036000000","EPOCH":"2022-02-13T18:10:06.794112","TLE_LINE1":"1 46341U 20062S   22044.75702308  .00002405  00000-0  18036-3 0  9994","MEAN_ELEMENT_THEORY":"SGP4","LAUNCH_DATE":"2020-09-03","CENTER_NAME":"EARTH","RCS_SIZE":"LARGE","MEAN_MOTION":"15.06393643","COUNTRY_CODE":"US","NORAD_CAT_ID":"46341","FILE":"3299746","SITE":"AFETR","OBJECT_ID":"2020-062S","PERIOD":"95.593"},{"GP_ID":"195893376","ECCENTRICITY":"0.00014860","BSTAR":"-0.00003414300000","EPOCH":"2022-02-13T12:54:18.988128","TIME_SYSTEM":"UTC","CLASSIFICATION_TYPE":"U","ELEMENT_SET_NO":"999","SEMIMAJOR_AXIS":"6925.368","RA_OF_ASC_NODE":"203.7173","INCLINATION":"53.0527","DECAY_DATE":null,"SITE":"AFETR","OBJECT_ID":"2020-062T","PERIOD":"95.593","COUNTRY_CODE":"US","MEAN_MOTION":"15.06393710","NORAD_CAT_ID":"46342","FILE":"3299685","RCS_SIZE":"LARGE","TLE_LINE1":"1 46342U 20062T   22044.53771977 -.00000790  00000-0 -34143-4 0  9994","MEAN_ELEMENT_THEORY":"SGP4","LAUNCH_DATE":"2020-09-03","CENTER_NAME":"EARTH","MEAN_MOTION_DOT":"-0.00000790","MEAN_MOTION_DDOT":"0.0000000000000","MEAN_ANOMALY":"288.8374","OBJECT_TYPE":"PAYLOAD","APOAPSIS":"548.262","OBJECT_NAME":"STARLINK-1762","PERIAPSIS":"546.204","REV_AT_EPOCH":"8046","REF_FRAME":"TEME","ARG_OF_PERICENTER":"71.2776","EPHEMERIS_TYPE":"0","TLE_LINE2":"2 46342  53.0527 203.7173 0001486  71.2776 288.8374 15.06393710 80468"},{"MEAN_ANOMALY":"288.5549","MEAN_MOTION_DDOT":"0.0000000000000","MEAN_MOTION_DOT":"-0.00001872","OBJECT_TYPE":"PAYLOAD","APOAPSIS":"548.184","OBJECT_NAME":"STARLINK-1764","REV_AT_EPOCH":"8095","PERIAPSIS":"546.278","REF_FRAME":"TEME","TLE_LINE2":"2 46343  53.0547 182.8629 0001376  71.5589 288.5549 15.06394283 80958","EPHEMERIS_TYPE":"0","ARG_OF_PERICENTER":"71.5589","EPOCH":"2022-02-13T17:32:58.063776","BSTAR":"-0.00010684000000","ECCENTRICITY":"0.00013760","GP_ID":"195899124","CLASSIFICATION_TYPE":"U","TIME_SYSTEM":"UTC","INCLINATION":"53.0547","SEMIMAJOR_AXIS":"6925.366","RA_OF_ASC_NODE":"182.8629","ELEMENT_SET_NO":"999","DECAY_DATE":null,"PERIOD":"95.593","OBJECT_ID":"2020-062U","SITE":"AFETR","FILE":"3299746","MEAN_MOTION":"15.06394283","COUNTRY_CODE":"US","NORAD_CAT_ID":"46343","RCS_SIZE":"LARGE","CENTER_NAME":"EARTH","LAUNCH_DATE":"2020-09-03","MEAN_ELEMENT_THEORY":"SGP4","TLE_LINE1":"1 46343U 20062U   22044.73122759 -.00001872  00000-0 -10684-3 0  9990"}];
